start=new Date('2022-02-26T00:00:00.000Z').valueOf();
sats=[{"REV_AT_EPOCH":"10774","COUNTRY_CODE":"US","EPHEMERIS_TYPE":"0","BSTAR":"0.00039699000000","OBJECT_TYPE":"PAYLOAD","MEAN_ELEMENT_THEORY":"SGP4","MEAN_MOTION":"15.06414709","CENTER_NAME":"EARTH","OBJECT_ID":"2020-019H","EPOCH":"2022-02-25T21:06:00.657792","GP_ID":"196998678","MEAN_MOTION_DDOT":"0.0000000000000","SEMIMAJOR_AXIS":"6925.303","RCS_SIZE":"LARGE","MEAN_MOTION_DOT":"0.00005639","INCLINATION":"53.0523","ELEMENT_SET_NO":"999","APOAPSIS":"548.192","FILE":"3323435","REF_FRAME":"TEME","OBJECT_NAME":"STARLINK-1273","ECCENTRICITY":"0.00014780","NORAD_CAT_ID":"45367","LAUNCH_DATE":"2020-03-18","RA_OF_ASC_NODE":"298.3342","TLE_LINE2":"2 45367  53.0523 298.3342 0001478  68.7942 291.3205 15.06414709107740","PERIAPSIS":"546.145","TLE_LINE1":"1 45367U 20019H   22056.87917428  .00005639  00000-0  39699-3 0  9990","TIME_SYSTEM":"UTC","DECAY_DATE":null,"ARG_OF_PERICENTER":"68.7942","MEAN_ANOMALY":"291.3205","PERIOD":"95.591","CLASSIFICATION_TYPE":"U","SITE":"AFETR"},{"TLE_LINE1":"1 45368U 20019J   22056.84968080  .00000929  00000-0  81259-4 0  9995","TLE_LINE2":"2 45368  53.0540 298.4460 0001225  94.9172 265.1957 15.06400482107744","PERIAPSIS":"546.364","TIME_SYSTEM":"UTC","ARG_OF_PERICENTER":"94.9172","MEAN_ANOMALY":"265.1957","DECAY_DATE":null,"SITE":"AFETR","CLASSIFICATION_TYPE":"U","PERIOD":"95.592","MEAN_ELEMENT_THEORY":"SGP4","OBJECT_TYPE":"PAYLOAD","BSTAR":"0.00008125900000","MEAN_MOTION":"15.06400482","COUNTRY_CODE":"US","EPHEMERIS_TYPE":"0","REV_AT_EPOCH":"10774","EPOCH":"2022-02-25T20:23:32.421120","OBJECT_ID":"2020-019J","GP_ID":"196999153","CENTER_NAME":"EARTH","ELEMENT_SET_NO":"999","FILE":"3323435","APOAPSIS":"548.060","MEAN_MOTION_DDOT":"0.0000000000000","INCLINATION":"53.0540","MEAN_MOTION_DOT":"0.00000929","RCS_SIZE":"LARGE","SEMIMAJOR_AXIS":"6925.347","NORAD_CAT_ID":"45368","LAUNCH_DATE":"2020-03-18","RA_OF_ASC_NODE":"298.4460","REF_FRAME":"TEME","ECCENTRICITY":"0.00012250","OBJECT_NAME":"STARLINK-1276"},{"DECAY_DATE":null,"ARG_OF_PERICENTER":"72.3458","MEAN_ANOMALY":"287.7698","PERIOD":"95.592","SITE":"AFETR","CLASSIFICATION_TYPE":"U","TLE_LINE2":"2 45369  53.0524 298.4685 0001533  72.3458 287.7698 15.06399997107745","PERIAPSIS":"546.152","TLE_LINE1":"1 45369U 20019K   22056.84873876  .00005213  00000-0  36860-3 0  9992","TIME_SYSTEM":"UTC","MEAN_MOTION_DDOT":"0.0000000000000","MEAN_MOTION_DOT":"0.00005213","INCLINATION":"53.0524","SEMIMAJOR_AXIS":"6925.349","RCS_SIZE":"LARGE","ELEMENT_SET_NO":"999","FILE":"3323947","APOAPSIS":"548.275","REF_FRAME":"TEME","ECCENTRICITY":"0.00015330","OBJECT_NAME":"STARLINK-1277","NORAD_CAT_ID":"45369","LAUNCH_DATE":"2020-03-18","RA_OF_ASC_NODE":"298.4685","EPHEMERIS_TYPE":"0","COUNTRY_CODE":"US","REV_AT_EPOCH":"10774","MEAN_ELEMENT_THEORY":"SGP4","OBJECT_TYPE":"PAYLOAD","BSTAR":"0.00036860000000","MEAN_MOTION":"15.06399997","CENTER_NAME":"EARTH","EPOCH":"2022-02-25T20:22:11.028864","OBJECT_ID":"2020-019K","GP_ID":"197030148"},{"TLE_LINE1":"1 45370U 20019L   22056.90497676  .00000801  00000-0  72668-4 0  9996","TLE_LINE2":"2 45370  53.0566 298.2060 0001505  66.2778 293.8368 15.06386743107752","PERIAPSIS":"546.212","TIME_SYSTEM":"UTC","ARG_OF_PERICENTER":"66.2778","MEAN_ANOMALY":"293.8368","DECAY_DATE":null,"CLASSIFICATION_TYPE":"U","SITE":"AFETR","PERIOD":"95.593","BSTAR":"0.00007266800000","MEAN_ELEMENT_THEORY":"SGP4","OBJECT_TYPE":"PAYLOAD","MEAN_MOTION":"15.06386743","REV_AT_EPOCH":"10775","COUNTRY_CODE":"US","EPHEMERIS_TYPE":"0","OBJECT_ID":"2020-019L","EPOCH":"2022-02-25T21:43:09.992064","GP_ID":"197030395","CENTER_NAME":"EARTH","ELEMENT_SET_NO":"999","APOAPSIS":"548.296","FILE":"3323947","MEAN_MOTION_DDOT":"0.0000000000000","RCS_SIZE":"LARGE","SEMIMAJOR_AXIS":"6925.389","MEAN_MOTION_DOT":"0.00000801","INCLINATION":"53.0566","NORAD_CAT_ID":"45370","RA_OF_ASC_NODE":"298.2060","LAUNCH_DATE":"2020-03-18","REF_FRAME":"TEME","ECCENTRICITY":"0.00015050","OBJECT_NAME":"STARLINK-1281"},{"ELEMENT_SET_NO":"999","APOAPSIS":"548.177","FILE":"3323947","MEAN_MOTION_DDOT":"0.0000000000000","SEMIMAJOR_AXIS":"6925.331","RCS_SIZE":"LARGE","INCLINATION":"53.0549","MEAN_MOTION_DOT":"0.00003509","NORAD_CAT_ID":"45371","LAUNCH_DATE":"2020-03-18","RA_OF_ASC_NODE":"298.3698","REF_FRAME":"TEME","ECCENTRICITY":"0.00014170","OBJECT_NAME":"STARLINK-1287","BSTAR":"0.00025432000000","MEAN_ELEMENT_THEORY":"SGP4","OBJECT_TYPE":"PAYLOAD","MEAN_MOTION":"15.06405813","REV_AT_EPOCH":"10774","COUNTRY_CODE":"US","EPHEMERIS_TYPE":"0","OBJECT_ID":"2020-019M","EPOCH":"2022-02-25T20:50:04.752384","GP_ID":"197031150","CENTER_NAME":"EARTH","ARG_OF_PERICENTER":"74.7636","MEAN_ANOMALY":"285.3509","DECAY_DATE":null,"CLASSIFICATION_TYPE":"U","SITE":"AFETR","PERIOD":"95.592","TLE_LINE1":"1 45371U 20019M   22056.86811056  .00003509  00000-0  25432-3 0  9998","TLE_LINE2":"2 45371  53.0549 298.3698 0001417  74.7636 285.3509 15.06405813107743","PERIAPSIS":"546.214","TIME_SYSTEM":"UTC"},{"NORAD_CAT_ID":"45372","RA_OF_ASC_NODE":"298.3177","LAUNCH_DATE":"2020-03-18","REF_FRAME":"TEME","ECCENTRICITY":"0.00015750","OBJECT_NAME":"STARLINK-1288","ELEMENT_SET_NO":"999","APOAPSIS":"548.326","FILE":"3323436","MEAN_MOTION_DDOT":"0.0000000000000","SEMIMAJOR_AXIS":"6925.370","RCS_SIZE":"LARGE","INCLINATION":"53.0557","MEAN_MOTION_DOT":"-0.00000489","OBJECT_ID":"2020-019N","EPOCH":"2022-02-25T21:11:18.548448","GP_ID":"196998684","CENTER_NAME":"EARTH","BSTAR":"-0.00001394700000","MEAN_ELEMENT_THEORY":"SGP4","OBJECT_TYPE":"PAYLOAD","MEAN_MOTION":"15.06393012","REV_AT_EPOCH":"10774","EPHEMERIS_TYPE":"0","COUNTRY_CODE":"US","CLASSIFICATION_TYPE":"U","SITE":"AFETR","PERIOD":"95.593","ARG_OF_PERICENTER":"69.3431","MEAN_ANOMALY":"290.7727","DECAY_DATE":null,"TIME_SYSTEM":"UTC","TLE_LINE1":"1 45372U 20019N   22056.88285357 -.00000489  00000-0 -13947-4 0  9995","TLE_LINE2":"2 45372  53.0557 298.3177 0001575  69.3431 290.7727 15.06393012107742","PERIAPSIS":"546.144"},{"ARG_OF_PERICENTER":"80.4355","MEAN_ANOMALY":"279.6790","DECAY_DATE":null,"CLASSIFICATION_TYPE":"U","SITE":"AFETR","PERIOD":"95.592","TLE_LINE1":"1 45373U 20019P   22056.86442644  .00001090  00000-0  92038-4 0  9993","TLE_LINE2":"2 45373  53.0540 298.3860 0001379  80.4355 279.6790 15.06400325107747","PERIAPSIS":"546.258","TIME_SYSTEM":"UTC","ELEMENT_SET_NO":"999","APOAPSIS":"548.168","FILE":"3323947","MEAN_MOTION_DDOT":"0.0000000000000","RCS_SIZE":"LARGE","SEMIMAJOR_AXIS":"6925.348","MEAN_MOTION_DOT":"0.00001090","INCLINATION":"53.0540","NORAD_CAT_ID":"45373","LAUNCH_DATE":"2020-03-18","RA_OF_ASC_NODE":"298.3860","REF_FRAME":"TEME","ECCENTRICITY":"0.00013790","OBJECT_NAME":"STARLINK-1295","BSTAR":"0.00009203800000","MEAN_ELEMENT_THEORY":"SGP4","OBJECT_TYPE":"PAYLOAD","MEAN_MOTION":"15.06400325","REV_AT_EPOCH":"10774","COUNTRY_CODE":"US","EPHEMERIS_TYPE":"0","OBJECT_ID":"2020-019P","EPOCH":"2022-02-25T20:44:46.444416","GP_ID":"197029649","CENTER_NAME":"EARTH"},{"CLASSIFICATION_TYPE":"U","SITE":"AFETR","PERIOD":"95.592","ARG_OF_PERICENTER":"90.1006","MEAN_ANOMALY":"270.0138","DECAY_DATE":null,"TIME_SYSTEM":"UTC","TLE_LINE1":"1 45374U 20019Q   22056.86074293  .00001610  00000-0  12698-3 0  9996","TLE_LINE2":"2 45374  53.0544 298.4052 0001356  90.1006 270.0138 15.06400678107744","PERIAPSIS":"546.272","NORAD_CAT_ID":"45374","RA_OF_ASC_NODE":"298.4052","LAUNCH_DATE":"2020-03-18","REF_FRAME":"TEME","ECCENTRICITY":"0.00013560","OBJECT_NAME":"STARLINK-1300","ELEMENT_SET_NO":"999","APOAPSIS":"548.151","FILE":"3323947","MEAN_MOTION_DDOT":"0.0000000000000","SEMIMAJOR_AXIS":"6925.346","RCS_SIZE":"LARGE","INCLINATION":"53.0544","MEAN_MOTION_DOT":"0.00001610","OBJECT_ID":"2020-019Q","EPOCH":"2022-02-25T20:39:28.189152","GP_ID":"197030895","CENTER_NAME":"EARTH","BSTAR":"0.00012698000000","MEAN_ELEMENT_THEORY":"SGP4","OBJECT_TYPE":"PAYLOAD","MEAN_MOTION":"15.06400678","REV_AT_EPOCH":"10774","EPHEMERIS_TYPE":"0","COUNTRY_CODE":"US"},{"ECCENTRICITY":"0.00017980","OBJECT_NAME":"STARLINK-1302","REF_FRAME":"TEME","RA_OF_ASC_NODE":"298.3498","LAUNCH_DATE":"2020-03-18","NORAD_CAT_ID":"45375","INCLINATION":"53.0522","MEAN_MOTION_DOT":"0.00003818","RCS_SIZE":"LARGE","SEMIMAJOR_AXIS":"6925.311","MEAN_MOTION_DDOT":"0.0000000000000","APOAPSIS":"548.421","FILE":"3323947","ELEMENT_SET_NO":"999","CENTER_NAME":"EARTH","GP_ID":"197030651","EPOCH":"2022-02-25T21:00:42.323904","OBJECT_ID":"2020-019R","COUNTRY_CODE":"US","EPHEMERIS_TYPE":"0","REV_AT_EPOCH":"10774","MEAN_MOTION":"15.06412258","MEAN_ELEMENT_THEORY":"SGP4","OBJECT_TYPE":"PAYLOAD","BSTAR":"0.00027497000000","PERIOD":"95.591","SITE":"AFETR","CLASSIFICATION_TYPE":"U","DECAY_DATE":null,"MEAN_ANOMALY":"286.1329","ARG_OF_PERICENTER":"73.9857","TIME_SYSTEM":"UTC","PERIAPSIS":"545.931","TLE_LINE2":"2 45375  53.0522 298.3498 0001798  73.9857 286.1329 15.06412258107744","TLE_LINE1":"1 45375U 20019R   22056.87548986  .00003818  00000-0  27497-3 0  9998"},{"REF_FRAME":"TEME","ECCENTRICITY":"0.00017460","OBJECT_NAME":"STARLINK-1304","NORAD_CAT_ID":"45376","LAUNCH_DATE":"2020-03-18","RA_OF_ASC_NODE":"298.2661","MEAN_MOTION_DDOT":"0.0000000000000","MEAN_MOTION_DOT":"0.00001414","INCLINATION":"53.0547","RCS_SIZE":"LARGE","SEMIMAJOR_AXIS":"6925.332","ELEMENT_SET_NO":"999","FILE":"3323947","APOAPSIS":"548.406","CENTER_NAME":"EARTH","EPOCH":"2022-02-25T21:27:14.001984","OBJECT_ID":"2020-019S","GP_ID":"197029899","COUNTRY_CODE":"US","EPHEMERIS_TYPE":"0","REV_AT_EPOCH":"10774","OBJECT_TYPE":"PAYLOAD","MEAN_ELEMENT_THEORY":"SGP4","BSTAR":"0.00011378000000","MEAN_MOTION":"15.06405472","PERIOD":"95.592","SITE":"AFETR","CLASSIFICATION_TYPE":"U","DECAY_DATE":null,"ARG_OF_PERICENTER":"75.2859","MEAN_ANOMALY":"284.8323","TIME_SYSTEM":"UTC","TLE_LINE2":"2 45376  53.0547 298.2661 0001746  75.2859 284.8323 15.06405472107742","PERIAPSIS":"545.988","TLE_LINE1":"1 45376U 20019S   22056.89391206  .00001414  00000-0  11378-3 0  9993"}];
